{
  "type": "FeatureCollection",
  "features": [
    {
      "type": "Feature",
      "properties": {
        "norad_id": 33376,
        "name": "GALAXY 19 (G-19)",
        "group": "intelsat",
        "lat": -0.038782112761256524,
        "lon": -148.01505026740077,
        "alt_km": 35779.721412215375,
        "timestamp": "2025-12-15T14:57:57.507672+00:00",
        "meta_object_name": "GALAXY 19 (G-19)",
        "meta_object_id": "2008-045A",
        "meta_epoch": "2025-12-14T21:31:07.154112",
        "meta_mean_motion": 1.00271416,
        "meta_eccentricity": 0.00026026,
        "meta_inclination": 0.029,
        "meta_ra_of_asc_node": 275.3259,
        "meta_arg_of_pericenter": 350.6365,
        "meta_mean_anomaly": 43.6325,
        "meta_ephemeris_type": 0,
        "meta_classification_type": "U",
        "meta_norad_cat_id": 33376,
        "meta_element_set_no": 999,
        "meta_rev_at_epoch": 6305,
        "meta_bstar": 0,
        "meta_mean_motion_dot": -1.19e-06,
        "meta_mean_motion_ddot": 0,
        "tle_line1": "1 33376U 08045A   25348.89661058 -.00000119  00000+0  00000+0 0  9994",
        "tle_line2": "2 33376   0.0290 275.3259 0002602 350.6365  43.6325  1.00271416 63055"
      },
      "geometry": {
        "type": "Point",
        "coordinates": [
          -148.01505026740077,
          -0.038782112761256524
        ]
      }
    },
    {
      "type": "Feature",
      "properties": {
        "norad_id": 35493,
        "name": "FM-5",
        "group": "intelsat",
        "lat": -0.033661224204260556,
        "lon": -137.10627749531753,
        "alt_km": 35782.44481917164,
        "timestamp": "2025-12-15T14:57:57.507683+00:00",
        "meta_object_name": "FM-5",
        "meta_object_id": "2009-034A",
        "meta_epoch": "2025-12-14T09:19:38.921088",
        "meta_mean_motion": 1.0027708,
        "meta_eccentricity": 7.415e-05,
        "meta_inclination": 0.0211,
        "meta_ra_of_asc_node": 287.5173,
        "meta_arg_of_pericenter": 251.221,
        "meta_mean_anomaly": 318.3428,
        "meta_ephemeris_type": 0,
        "meta_classification_type": "U",
        "meta_norad_cat_id": 35493,
        "meta_element_set_no": 999,
        "meta_rev_at_epoch": 4479,
        "meta_bstar": 0,
        "meta_mean_motion_dot": -1.83e-06,
        "meta_mean_motion_ddot": 0,
        "tle_line1": "1 35493U 09034A   25348.38864492 -.00000183  00000+0  00000+0 0  9997",
        "tle_line2": "2 35493   0.0211 287.5173 0000741 251.2210 318.3428  1.00277080 44796"
      },
      "geometry": {
        "type": "Point",
        "coordinates": [
          -137.10627749531753,
          -0.033661224204260556
        ]
      }
    },
    {
      "type": "Feature",
      "properties": {
        "norad_id": 36097,
        "name": "INTELSAT 14 (IS-14)",
        "group": "intelsat",
        "lat": -0.028026342473691162,
        "lon": -95.99453087298005,
        "alt_km": 35776.05060496342,
        "timestamp": "2025-12-15T14:57:57.507694+00:00",
        "meta_object_name": "INTELSAT 14 (IS-14)",
        "meta_object_id": "2009-064A",
        "meta_epoch": "2025-12-14T21:45:50.743584",
        "meta_mean_motion": 1.0027164,
        "meta_eccentricity": 0.00024214,
        "meta_inclination": 0.0216,
        "meta_ra_of_asc_node": 46.6634,
        "meta_arg_of_pericenter": 225.3444,
        "meta_mean_anomaly": 93.2785,
        "meta_ephemeris_type": 0,
        "meta_classification_type": "U",
        "meta_norad_cat_id": 36097,
        "meta_element_set_no": 999,
        "meta_rev_at_epoch": 5875,
        "meta_bstar": 0,
        "meta_mean_motion_dot": -2.54e-06,
        "meta_mean_motion_ddot": 0,
        "tle_line1": "1 36097U 09064A   25348.90683731 -.00000254  00000+0  00000+0 0  9993",
        "tle_line2": "2 36097   0.0216  46.6634 0002421 225.3444  93.2785  1.00271640 58758"
      },
      "geometry": {
        "type": "Point",
        "coordinates": [
          -95.99453087298005,
          -0.028026342473691162
        ]
      }
    },
    {
      "type": "Feature",
      "properties": {
        "norad_id": 36106,
        "name": "INTELSAT 15 (IS-15)",
        "group": "intelsat",
        "lat": 0.03163372373580096,
        "lon": 34.18159380935876,
        "alt_km": 35790.906565472695,
        "timestamp": "2025-12-15T14:57:57.507705+00:00",
        "meta_object_name": "INTELSAT 15 (IS-15)",
        "meta_object_id": "2009-067A",
        "meta_epoch": "2025-12-14T22:18:38.668608",
        "meta_mean_motion": 1.00272078,
        "meta_eccentricity": 0.00022227,
        "meta_inclination": 0.0136,
        "meta_ra_of_asc_node": 306.2062,
        "meta_arg_of_pericenter": 326.9048,
        "meta_mean_anomaly": 230.5467,
        "meta_ephemeris_type": 0,
        "meta_classification_type": "U",
        "meta_norad_cat_id": 36106,
        "meta_element_set_no": 999,
        "meta_rev_at_epoch": 3938,
        "meta_bstar": 0,
        "meta_mean_motion_dot": -1.65e-06,
        "meta_mean_motion_ddot": 0,
        "tle_line1": "1 36106U 09067A   25348.92961422 -.00000165  00000+0  00000+0 0  9996",
        "tle_line2": "2 36106   0.0136 306.2062 0002222 326.9048 230.5467  1.00272078 39384"
      },
      "geometry": {
        "type": "Point",
        "coordinates": [
          34.18159380935876,
          0.03163372373580096
        ]
      }
    },
    {
      "type": "Feature",
      "properties": {
        "norad_id": 36131,
        "name": "DIRECTV 12",
        "group": "intelsat",
        "lat": 0.024560845837074945,
        "lon": -153.70562828148257,
        "alt_km": 35788.07441534511,
        "timestamp": "2025-12-15T14:57:57.507717+00:00",
        "meta_object_name": "DIRECTV 12",
        "meta_object_id": "2009-075A",
        "meta_epoch": "2025-12-14T21:29:22.322400",
        "meta_mean_motion": 1.00273793,
        "meta_eccentricity": 6.08e-05,
        "meta_inclination": 0.0486,
        "meta_ra_of_asc_node": 142.2752,
        "meta_arg_of_pericenter": 238.8149,
        "meta_mean_anomaly": 282.3462,
        "meta_ephemeris_type": 0,
        "meta_classification_type": "U",
        "meta_norad_cat_id": 36131,
        "meta_element_set_no": 999,
        "meta_rev_at_epoch": 4470,
        "meta_bstar": 0,
        "meta_mean_motion_dot": -8.4e-07,
        "meta_mean_motion_ddot": 0,
        "tle_line1": "1 36131U 09075A   25348.89539725 -.00000084  00000+0  00000+0 0  9996",
        "tle_line2": "2 36131   0.0486 142.2752 0000608 238.8149 282.3462  1.00273793 44700"
      },
      "geometry": {
        "type": "Point",
        "coordinates": [
          -153.70562828148257,
          0.024560845837074945
        ]
      }
    },
    {
      "type": "Feature",
      "properties": {
        "norad_id": 36397,
        "name": "INTELSAT 16 (IS-16)",
        "group": "intelsat",
        "lat": -0.033192617733408536,
        "lon": -127.20264307345505,
        "alt_km": 35779.30813718702,
        "timestamp": "2025-12-15T14:57:57.507728+00:00",
        "meta_object_name": "INTELSAT 16 (IS-16)",
        "meta_object_id": "2010-006A",
        "meta_epoch": "2025-12-14T21:36:59.093280",
        "meta_mean_motion": 1.00271831,
        "meta_eccentricity": 0.00019477,
        "meta_inclination": 0.0121,
        "meta_ra_of_asc_node": 318.5214,
        "meta_arg_of_pericenter": 308.4101,
        "meta_mean_anomaly": 64.9337,
        "meta_ephemeris_type": 0,
        "meta_classification_type": "U",
        "meta_norad_cat_id": 36397,
        "meta_element_set_no": 999,
        "meta_rev_at_epoch": 5780,
        "meta_bstar": 0,
        "meta_mean_motion_dot": -2.25e-06,
        "meta_mean_motion_ddot": 0,
        "tle_line1": "1 36397U 10006A   25348.90068395 -.00000225  00000+0  00000+0 0  9995",
        "tle_line2": "2 36397   0.0121 318.5214 0001947 308.4101  64.9337  1.00271831 57801"
      },
      "geometry": {
        "type": "Point",
        "coordinates": [
          -127.20264307345505,
          -0.033192617733408536
        ]
      }
    },
    {
      "type": "Feature",
      "properties": {
        "norad_id": 37185,
        "name": "XM-5",
        "group": "intelsat",
        "lat": -0.0725062101635378,
        "lon": -166.16924127727572,
        "alt_km": 35780.479706239435,
        "timestamp": "2025-12-15T14:57:57.507739+00:00",
        "meta_object_name": "XM-5",
        "meta_object_id": "2010-053A",
        "meta_epoch": "2025-12-14T21:25:52.657248",
        "meta_mean_motion": 1.00271433,
        "meta_eccentricity": 0.00019252,
        "meta_inclination": 0.0637,
        "meta_ra_of_asc_node": 272.2898,
        "meta_arg_of_pericenter": 236.3619,
        "meta_mean_anomaly": 141.435,
        "meta_ephemeris_type": 0,
        "meta_classification_type": "U",
        "meta_norad_cat_id": 37185,
        "meta_element_set_no": 999,
        "meta_rev_at_epoch": 5563,
        "meta_bstar": 0,
        "meta_mean_motion_dot": -3e-08,
        "meta_mean_motion_ddot": 0,
        "tle_line1": "1 37185U 10053A   25348.89297057 -.00000003  00000+0  00000+0 0  9994",
        "tle_line2": "2 37185   0.0637 272.2898 0001925 236.3619 141.4350  1.00271433 55635"
      },
      "geometry": {
        "type": "Point",
        "coordinates": [
          -166.16924127727572,
          -0.0725062101635378
        ]
      }
    }
  ]
}